HELIOS 1B               
1 25977U 99064A   20212.68788742  .00000029  00000-0  10750-4 0  9993
2 25977  98.2861   9.0899 0001441 146.2061 213.9243 14.82486975112823
TERRA                   
1 25994U 99068A   20212.84426752 -.00000003  00000-0  93391-5 0  9990
2 25994  98.2115 286.5229 0001207  99.2510 260.8815 14.57111352 96631
SL-16 R/B               
1 26070U 00006B   20212.91126014 -.00000189  00000-0 -72435-4 0  9997
2 26070  71.0010  81.9349 0014736  53.6981 306.5500 14.15464602 58783
MTI                     
1 26102U 00014A   20212.64687779  .00003533  00000-0  52134-4 0  9990
2 26102  97.4979  96.9782 0009218  73.6664 286.5610 15.56077170131238
TITAN 4B R/B            
1 26474U 00047B   20212.71096464  .00000031  00000-0  13609-4 0  9995
2 26474  67.9948 316.6207 0053714 154.5808 205.7995 14.95971834 85713
ENVISAT                 
1 27386U 02009A   20212.79507024 -.00000004  00000-0  11948-4 0  9990
2 27386  98.1361 217.5651 0001429  90.1263  82.6412 14.37987270964842
IDEFIX & ARIANE 42P R/B 
1 27422U 02021B   20212.85865755 -.00000019  00000-0  86730-5 0  9998
2 27422  98.3539 172.1367 0013444 101.0864 259.1831 14.29291440951368
AQUA                    
1 27424U 02022A   20212.81134035  .00000039  00000-0  18804-4 0  9994
2 27424  98.2103 152.8230 0001117 141.8097 303.3573 14.57111858970185
CZ-4B R/B               
1 27432U 02024C   20212.85483772 -.00000024  00000-0  11176-4 0  9994
2 27432  99.0883 215.7850 0051330  54.6425  15.2579 14.14095293939786
MIDORI II (ADEOS-II)    
1 27597U 02056A   20212.85555219  .00000008  00000-0  20692-4 0  9991
2 27597  98.5219 159.3567 0000752 134.1233 226.0010 14.27454112918003
H-2A R/B                
1 27601U 02056E   20212.71860963  .00000035  00000-0  27276-4 0  9992
2 27601  98.2233 246.2600 0072892 147.9901 323.5939 14.31960722920880
CZ-4B R/B               
1 28059U 03049C   20212.78782983 -.00000023  00000-0  61700-5 0  9994
2 28059  98.4839 129.8062 0050344   7.5261 352.6678 14.52605486889128
CZ-2C R/B               
1 28222U 04012C   20212.90147198  .00000224  00000-0  17502-4 0  9996
2 28222  97.6800 175.5683 0045669 240.6183 140.7477 15.10427401892551
SL-16 R/B               
1 28353U 04021B   20212.70643348 -.00000253  00000-0 -10766-3 0  9995
2 28353  70.9992 208.6117 0007713 270.5122  89.5116 14.14235292833255
CZ-4B R/B               
1 28415U 04035C   20212.86413100  .00000580  00000-0  42133-4 0  9992
2 28415  97.6106 253.9591 0050983 202.8741 157.0216 15.06882372870171
CZ-2C R/B               
1 28480U 04046B   20212.87893713 -.00000020  00000-0  68685-5 0  9990
2 28480  98.0757 244.4550 0143213  96.4977  75.1785 14.25726285816606
ARIANE 5 R/B            
1 28499U 04049H   20212.85448816  .00000022  00000-0  10012-4 0  9992
2 28499  98.0575 314.7726 0093204 132.4807 339.2697 14.80037762842518
CZ-2D R/B               
1 28738U 05024B   20212.79323619  .00000307  00000-0  21471-4 0  9995
2 28738  97.3808 233.9266 0012968  40.5686 319.6508 15.12067953827953
SUZAKU (ASTRO-EII)      
1 28773U 05025A   20212.89216103  .00000617  00000-0  25638-4 0  9998
2 28773  31.3825  94.2008 0004697 283.0055  77.0068 15.17611025830562
ALOS (DAICHI)           
1 28931U 06002A   20212.78561997  .00000053  00000-0  18998-4 0  9997
2 28931  97.8475 196.3986 0001360  32.2241 327.9044 14.62725891774036
H-2A R/B                
1 28932U 06002B   20212.63271782  .00000016  00000-0  79824-5 0  9997
2 28932  98.3234 205.1008 0088600 179.4245 244.9191 14.92251593787581
AKARI (ASTRO-F)         
1 28939U 06005A   20212.88121854  .00001293  00000-0  36642-4 0  9996
2 28939  98.2347 191.9891 0093059 171.3511 188.9360 15.34432250787555
RESURS-DK 1             
1 29228U 06021A   20212.88671179  .00000010  00000-0  81073-5 0  9991
2 29228  69.9357  77.4323 0003885 353.8878   6.2235 15.02554345779270
GENESIS 1               
1 29252U 06029A   20212.55685958  .00000219  00000-0  20527-4 0  9997
2 29252  64.5236 160.6016 0003337 153.1622 206.9674 15.18178218774648
CZ-4B R/B               
1 29507U 06046C   20212.63250265 -.00000577  00000-0 -39603-4 0  9991
2 29507  97.7543 234.4415 0046596  21.2282 339.0861 15.00648405751848
CZ-2C R/B               
1 31114U 07010B   20212.87169800 -.00000076  00000-0 -17416-4 0  9992
2 31114  98.2572  62.8226 0060389 139.7059 220.8617 14.19325790689168
COSMO-SKYMED 1          
1 31598U 07023A   20212.81958954  .00000305  00000-0  44879-4 0  9998
2 31598  97.8871  35.3498 0001405  90.7438 269.3945 14.82157486711251
GENESIS 2               
1 31789U 07028A   20212.33752303  .00000024  00000-0  11691-4 0  9996
2 31789  64.5014 202.9904 0040248 236.6809 123.0457 15.17297648721684
COSMOS 2428             
1 31792U 07029A   20212.62843752 -.00000344  00000-0 -16054-3 0  9996
2 31792  70.9073 182.3001 0009947 352.7562   7.3413 14.12310421674963
SL-16 R/B               
1 31793U 07029B   20212.83996802 -.00000122  00000-0 -38713-4 0  9996
2 31793  70.9752 155.2226 0002483 260.1703 164.8801 14.14428669675825
KORONAS-FOTON           
1 33504U 09003A   20212.87615154  .00000155  00000-0  63624-5 0  9998
2 33504  82.4424 179.6177 0020424 125.9228 234.3903 15.15669042633960
H-2A R/B                
1 38341U 12025E   20212.59990311  .00000111  00000-0  20522-4 0  9991
2 38341  98.5051  10.4201 0056802  93.3183 267.4530 14.84052183443762
CUSAT 2 & FALCON 9 R/B  
1 39271U 13055G   20212.78823902  .00006400  00000-0  15195-3 0  9996
2 39271  80.9640 220.3924 0587674  40.0048 324.2925 14.48445240357004
SL-4 R/B                
1 39679U 14021B   20212.10281151 -.00000162  00000-0  10870-4 0  9998
2 39679  51.6149 269.4919 0172356  93.5574 268.5126 15.06449955345458
ALOS-2                  
1 39766U 14029A   20212.72852361  .00000126  00000-0  23758-4 0  9996
2 39766  97.9228 308.7066 0001499  92.6587 267.4792 14.79472803334091
CZ-2C R/B               
1 40306U 14071B   20212.83235120  .00002248  00000-0  49072-4 0  9999
2 40306  97.3264 159.7384 0015888  14.9166 345.2549 15.45203044320544
SL-27 R/B               
1 40354U 14084B   20212.85031752  .00000591  00000-0  15658-4 0  9995
2 40354  74.7385 298.3121 0036167 105.7071 254.8136 15.40279861314811
YAOGAN 29               
1 41038U 15069A   20212.89783464 -.00000009  00000-0  58095-5 0  9995
2 41038  98.0130 200.8028 0002238  97.2970 262.8499 14.80453853252705
ASTRO-H (HITOMI)        
1 41337U 16012A   20212.89000917  .00000193  00000-0  86669-5 0  9992
2 41337  31.0059  94.3510 0012348 141.1070 219.0455 14.98695190244022
SHENZHOU-11 MODULE      
1 41868U 16061G   20212.43066633  .00059869  99891-5  10056-3 0  9992
2 41868  42.7851 227.1681 0012562 106.0445  35.6630 16.02431827212955
HXMT (HUIYAN)           
1 42758U 17034A   20212.94693280  .00000042  00000-0  16317-4 0  9997
2 42758  43.0179 157.3906 0012106 299.5376 110.2002 15.08856709172447
CZ-2C R/B               
1 43521U 18054D   20212.88795558  .00000246  00000-0  15615-4 0  9999
2 43521  35.1529 272.2779 0082273 141.0941 219.5730 15.11028721115721
AEOLUS                  
1 43600U 18066A   20212.74546828  .00025739  00000-0  10022-3 0  9999
2 43600  96.7187 218.4910 0003052  99.2246 260.9372 15.87083766112239
SAOCOM 1A               
1 43641U 18076A   20212.76030535 -.00000016  00000-0  45964-5 0  9997
2 43641  97.8898  38.2539 0001379  82.4499 277.6879 14.82152384 98017
CREW DRAGON DEMO-1 DEB  
1 44064U 19011B   20212.68686052  .00010553  00000-0  10729-3 0  9994
2 44064  51.6347  93.2542 0002777 204.6614 155.4249 15.65796776 79686
